[{"OBJECT_NAME":"YAOGAN-30 06B","OBJECT_ID":"2019-045B","EPOCH":"2026-03-09T20:57:59.211936","MEAN_MOTION":15.02091105,"ECCENTRICITY":0.00094792,"INCLINATION":34.9914,"RA_OF_ASC_NODE":214.7206,"ARG_OF_PERICENTER":283.6936,"MEAN_ANOMALY":76.2717,"EPHEMERIS_TYPE":0,"CLASSIFICATION_TYPE":"U","NORAD_CAT_ID":44450,"ELEMENT_SET_NO":999,"REV_AT_EPOCH":36171,"BSTAR":0.00031633807,"MEAN_MOTION_DOT":4.217e-5,"MEAN_MOTION_DDOT":0},{"OBJECT_NAME":"STARLINK-34938","OBJECT_ID":"2025-179B","EPOCH":"2026-03-09T15:58:21.453312","MEAN_MOTION":15.05653933,"ECCENTRICITY":0.00014446,"INCLINATION":97.604,"RA_OF_ASC_NODE":112.923,"ARG_OF_PERICENTER":92.9274,"MEAN_ANOMALY":267.2118,"EPHEMERIS_TYPE":0,"CLASSIFICATION_TYPE":"U","NORAD_CAT_ID":65236,"ELEMENT_SET_NO":999,"REV_AT_EPOCH":3186,"BSTAR":0.00017641376,"MEAN_MOTION_DOT":2.486e-5,"MEAN_MOTION_DDOT":0}]
